EROSB
1 29079U 06014A   18094.48990807  .00001583  00000-0  71410-4 0  9999
2 29079  97.3767 214.5985 0001971 219.3777 210.8037 15.22462785662698
